{
    "links": {
        "self": "http://www.neowsapp.com/rest/v1/neo/3724212?api_key=iIulBulltgU6a56xZRHN4H3l9WmuAYTsLGpBGhQ2"
    },
    "id": "3724212",
    "neo_reference_id": "3724212",
    "name": "(2015 OM)",
    "designation": "2015 OM",
    "nasa_jpl_url": "http://ssd.jpl.nasa.gov/sbdb.cgi?sstr=3724212",
    "absolute_magnitude_h": 20.6,
    "estimated_diameter": {
        "kilometers": {
            "estimated_diameter_min": 0.2016299194,
            "estimated_diameter_max": 0.4508582062
        },
        "meters": {
            "estimated_diameter_min": 201.6299194428,
            "estimated_diameter_max": 450.8582061718
        },
        "miles": {
            "estimated_diameter_min": 0.1252869847,
            "estimated_diameter_max": 0.2801502144
        },
        "feet": {
            "estimated_diameter_min": 661.5155049046,
            "estimated_diameter_max": 1479.1936371367
        }
    },
    "is_potentially_hazardous_asteroid": false,
    "close_approach_data": [
        {
            "close_approach_date": "2015-07-29",
            "close_approach_date_full": "2015-Jul-29 00:19",
            "epoch_date_close_approach": 1438129140000,
            "relative_velocity": {
                "kilometers_per_second": "27.3781753596",
                "kilometers_per_hour": "98561.431294556",
                "miles_per_hour": "61242.2404618868"
            },
            "miss_distance": {
                "astronomical": "0.1020515632",
                "lunar": "39.6980580848",
                "kilometers": "15266696.484890384",
                "miles": "9486285.3108159392"
            },
            "orbiting_body": "Earth"
        },
        {
            "close_approach_date": "2015-08-15",
            "close_approach_date_full": "2015-Aug-15 06:32",
            "epoch_date_close_approach": 1439620320000,
            "relative_velocity": {
                "kilometers_per_second": "30.8234428725",
                "kilometers_per_hour": "110964.394341121",
                "miles_per_hour": "68948.9593615704"
            },
            "miss_distance": {
                "astronomical": "0.0419212332",
                "lunar": "16.3073597148",
                "kilometers": "6271327.194493284",
                "miles": "3896822.0206199592"
            },
            "orbiting_body": "Venus"
        }
    ],
    "orbital_data": {
        "orbit_id": "6",
        "orbit_determination_date": "2017-04-06 08:32:45",
        "first_observation_date": "2015-07-18",
        "last_observation_date": "2015-07-23",
        "data_arc_in_days": 5,
        "observations_used": 76,
        "orbit_uncertainty": "9",
        "minimum_orbit_intersection": ".0847384",
        "jupiter_tisserand_invariant": "3.243",
        "epoch_osculation": "2457223.5",
        "eccentricity": ".8424694091563621",
        "semi_major_axis": "2.020006195664389",
        "inclination": "6.071620987269871",
        "ascending_node_longitude": "71.06390705436054",
        "orbital_period": "1048.642558038416",
        "perihelion_distance": ".3182127695108203",
        "perihelion_argument": "352.1099168271048",
        "aphelion_distance": "3.721799621817957",
        "perihelion_time": "2457276.658810134297",
        "mean_anomaly": "341.7505292898423",
        "mean_motion": ".3433009629834341",
        "equinox": "J2000",
        "orbit_class": {
            "orbit_class_type": "APO",
            "orbit_class_description": "Near-Earth asteroid orbits which cross the Earth’s orbit similar to that of 1862 Apollo",
            "orbit_class_range": "a (semi-major axis) > 1.0 AU; q (perihelion) < 1.017 AU"
        }
    },
    "is_sentry_object": false
}